start=new Date('2023-06-02T00:00:00.000Z').valueOf();
sats=[{"APOAPSIS":"540.540","SITE":"AFETR","INCLINATION":"53.2158","LAUNCH_DATE":"2022-09-05","REF_FRAME":"TEME","TLE_LINE1":"1 53728U 22107AE  23152.20620396  .00000212  00000-0  31380-4 0  9992","EPHEMERIS_TYPE":"0","OBJECT_TYPE":"PAYLOAD","MEAN_ELEMENT_THEORY":"SGP4","MEAN_MOTION_DDOT":"0.0000000000000","FILE":"3922365","ELEMENT_SET_NO":"999","TIME_SYSTEM":"UTC","PERIOD":"95.438","ARG_OF_PERICENTER":"86.0041","OBJECT_NAME":"STARLINK-4640","COUNTRY_CODE":"US","CLASSIFICATION_TYPE":"U","MEAN_MOTION_DOT":"0.00000212","SEMIMAJOR_AXIS":"6917.887","REV_AT_EPOCH":"4170","GP_ID":"232962812","RA_OF_ASC_NODE":"119.2875","EPOCH":"2023-06-01T04:56:56.022144","MEAN_MOTION":"15.08837954","CENTER_NAME":"EARTH","OBJECT_ID":"2022-107AE","BSTAR":"0.00003138000000","PERIAPSIS":"538.964","MEAN_ANOMALY":"274.1081","TLE_LINE2":"2 53728  53.2158 119.2875 0001139  86.0041 274.1081 15.08837954 41702","NORAD_CAT_ID":"53728","ECCENTRICITY":"0.00011390","DECAY_DATE":null,"RCS_SIZE":"LARGE"},{"REV_AT_EPOCH":"4173","SEMIMAJOR_AXIS":"6917.890","MEAN_MOTION_DOT":"0.00000512","GP_ID":"232962562","CENTER_NAME":"EARTH","MEAN_MOTION":"15.08836774","EPOCH":"2023-06-01T05:18:09.592704","RA_OF_ASC_NODE":"119.3781","OBJECT_ID":"2022-107AF","BSTAR":"0.00005025600000","MEAN_ANOMALY":"271.3662","PERIAPSIS":"538.944","ECCENTRICITY":"0.00011720","NORAD_CAT_ID":"53729","TLE_LINE2":"2 53729  53.2164 119.3781 0001172  88.7465 271.3662 15.08836774 41739","RCS_SIZE":"LARGE","DECAY_DATE":null,"SITE":"AFETR","APOAPSIS":"540.566","LAUNCH_DATE":"2022-09-05","INCLINATION":"53.2164","OBJECT_TYPE":"PAYLOAD","MEAN_ELEMENT_THEORY":"SGP4","TLE_LINE1":"1 53729U 22107AF  23152.22094436  .00000512  00000-0  50256-4 0  9991","EPHEMERIS_TYPE":"0","REF_FRAME":"TEME","MEAN_MOTION_DDOT":"0.0000000000000","ARG_OF_PERICENTER":"88.7465","PERIOD":"95.438","TIME_SYSTEM":"UTC","ELEMENT_SET_NO":"999","FILE":"3922365","OBJECT_NAME":"STARLINK-4651","COUNTRY_CODE":"US","CLASSIFICATION_TYPE":"U"},{"MEAN_ANOMALY":"258.7783","PERIAPSIS":"538.804","BSTAR":"-0.00003468900000","RCS_SIZE":"LARGE","DECAY_DATE":null,"NORAD_CAT_ID":"53730","ECCENTRICITY":"0.00014210","TLE_LINE2":"2 53730  53.2182 119.3366 0001421 101.3369 258.7783 15.08826259 41709","GP_ID":"232963313","SEMIMAJOR_AXIS":"6917.922","REV_AT_EPOCH":"4170","MEAN_MOTION_DOT":"-0.00000840","OBJECT_ID":"2022-107AG","CENTER_NAME":"EARTH","RA_OF_ASC_NODE":"119.3366","MEAN_MOTION":"15.08826259","EPOCH":"2023-06-01T05:07:33.130560","PERIOD":"95.438","ARG_OF_PERICENTER":"101.3369","ELEMENT_SET_NO":"999","FILE":"3922365","TIME_SYSTEM":"UTC","MEAN_MOTION_DDOT":"0.0000000000000","COUNTRY_CODE":"US","OBJECT_NAME":"STARLINK-4641","CLASSIFICATION_TYPE":"U","INCLINATION":"53.2182","LAUNCH_DATE":"2022-09-05","SITE":"AFETR","APOAPSIS":"540.770","TLE_LINE1":"1 53730U 22107AG  23152.21357790 -.00000840  00000-0 -34689-4 0  9995","EPHEMERIS_TYPE":"0","MEAN_ELEMENT_THEORY":"SGP4","OBJECT_TYPE":"PAYLOAD","REF_FRAME":"TEME"},{"TIME_SYSTEM":"UTC","ELEMENT_SET_NO":"999","FILE":"3922585","ARG_OF_PERICENTER":"91.5923","PERIOD":"95.438","MEAN_MOTION_DDOT":"0.0000000000000","COUNTRY_CODE":"US","OBJECT_NAME":"STARLINK-4636","CLASSIFICATION_TYPE":"U","LAUNCH_DATE":"2022-09-05","INCLINATION":"53.2157","APOAPSIS":"540.500","SITE":"AFETR","REF_FRAME":"TEME","OBJECT_TYPE":"PAYLOAD","MEAN_ELEMENT_THEORY":"SGP4","EPHEMERIS_TYPE":"0","TLE_LINE1":"1 53731U 22107AH  23152.22462618  .00000852  00000-0  71632-4 0  9993","PERIAPSIS":"538.994","MEAN_ANOMALY":"268.5194","BSTAR":"0.00007163200000","RCS_SIZE":"LARGE","DECAY_DATE":null,"TLE_LINE2":"2 53731  53.2157 119.4010 0001088  91.5923 268.5194 15.08839422 41109","ECCENTRICITY":"0.00010880","NORAD_CAT_ID":"53731","GP_ID":"232972406","MEAN_MOTION_DOT":"0.00000852","REV_AT_EPOCH":"4110","SEMIMAJOR_AXIS":"6917.882","OBJECT_ID":"2022-107AH","EPOCH":"2023-06-01T05:23:27.701952","MEAN_MOTION":"15.08839422","RA_OF_ASC_NODE":"119.4010","CENTER_NAME":"EARTH"},{"RA_OF_ASC_NODE":"119.3590","MEAN_MOTION":"15.08862027","EPOCH":"2023-06-01T05:14:11.307552","CENTER_NAME":"EARTH","OBJECT_ID":"2022-107AJ","MEAN_MOTION_DOT":"0.00003629","SEMIMAJOR_AXIS":"6917.813","REV_AT_EPOCH":"4110","GP_ID":"232972437","TLE_LINE2":"2 53732  53.2164 119.3590 0001350  79.0896 281.0248 15.08862027 41109","NORAD_CAT_ID":"53732","ECCENTRICITY":"0.00013500","DECAY_DATE":null,"RCS_SIZE":"LARGE","BSTAR":"0.00024582000000","PERIAPSIS":"538.744","MEAN_ANOMALY":"281.0248","REF_FRAME":"TEME","TLE_LINE1":"1 53732U 22107AJ  23152.21818643  .00003629  00000-0  24582-3 0  9992","EPHEMERIS_TYPE":"0","OBJECT_TYPE":"PAYLOAD","MEAN_ELEMENT_THEORY":"SGP4","APOAPSIS":"540.612","SITE":"AFETR","INCLINATION":"53.2164","LAUNCH_DATE":"2022-09-05","COUNTRY_CODE":"US","CLASSIFICATION_TYPE":"U","OBJECT_NAME":"STARLINK-4661","MEAN_MOTION_DDOT":"0.0000000000000","FILE":"3922587","ELEMENT_SET_NO":"999","TIME_SYSTEM":"UTC","PERIOD":"95.436","ARG_OF_PERICENTER":"79.0896"},{"REV_AT_EPOCH":"4172","SEMIMAJOR_AXIS":"6917.879","MEAN_MOTION_DOT":"0.00000780","GP_ID":"232963063","CENTER_NAME":"EARTH","MEAN_MOTION":"15.08840414","EPOCH":"2023-06-01T03:58:41.343456","RA_OF_ASC_NODE":"119.7447","OBJECT_ID":"2022-107AK","BSTAR":"0.00006709100000","MEAN_ANOMALY":"270.5725","PERIAPSIS":"538.924","ECCENTRICITY":"0.00011850","NORAD_CAT_ID":"53733","TLE_LINE2":"2 53733  53.2151 119.7447 0001185  89.5403 270.5725 15.08840414 41724","DECAY_DATE":null,"RCS_SIZE":"LARGE","SITE":"AFETR","APOAPSIS":"540.564","LAUNCH_DATE":"2022-09-05","INCLINATION":"53.2151","MEAN_ELEMENT_THEORY":"SGP4","OBJECT_TYPE":"PAYLOAD","TLE_LINE1":"1 53733U 22107AK  23152.16575629  .00000780  00000-0  67091-4 0  9999","EPHEMERIS_TYPE":"0","REF_FRAME":"TEME","MEAN_MOTION_DDOT":"0.0000000000000","ARG_OF_PERICENTER":"89.5403","PERIOD":"95.438","TIME_SYSTEM":"UTC","FILE":"3922365","ELEMENT_SET_NO":"999","COUNTRY_CODE":"US","OBJECT_NAME":"STARLINK-4574","CLASSIFICATION_TYPE":"U"},{"ECCENTRICITY":"0.00009740","NORAD_CAT_ID":"53734","TLE_LINE2":"2 53734  53.2158 119.3568 0000974  92.7955 267.3149 15.08829068 41103","RCS_SIZE":"LARGE","DECAY_DATE":null,"BSTAR":"-0.00000765440000","MEAN_ANOMALY":"267.3149","PERIAPSIS":"539.105","CENTER_NAME":"EARTH","EPOCH":"2023-06-01T05:12:52.318944","MEAN_MOTION":"15.08829068","RA_OF_ASC_NODE":"119.3568","OBJECT_ID":"2022-107AL","REV_AT_EPOCH":"4110","SEMIMAJOR_AXIS":"6917.914","MEAN_MOTION_DOT":"-0.00000409","GP_ID":"232971949","CLASSIFICATION_TYPE":"U","COUNTRY_CODE":"US","OBJECT_NAME":"STARLINK-4616","MEAN_MOTION_DDOT":"0.0000000000000","ARG_OF_PERICENTER":"92.7955","PERIOD":"95.438","TIME_SYSTEM":"UTC","ELEMENT_SET_NO":"999","FILE":"3922587","MEAN_ELEMENT_THEORY":"SGP4","OBJECT_TYPE":"PAYLOAD","EPHEMERIS_TYPE":"0","TLE_LINE1":"1 53734U 22107AL  23152.21727221 -.00000409  00000-0 -76544-5 0  9997","REF_FRAME":"TEME","SITE":"AFETR","APOAPSIS":"540.453","LAUNCH_DATE":"2022-09-05","INCLINATION":"53.2158"},{"OBJECT_ID":"2022-107AM","CENTER_NAME":"EARTH","EPOCH":"2023-06-01T04:39:41.034816","MEAN_MOTION":"15.08841848","RA_OF_ASC_NODE":"129.2009","GP_ID":"232939130","REV_AT_EPOCH":"4096","SEMIMAJOR_AXIS":"6917.875","MEAN_MOTION_DOT":"0.00001031","RCS_SIZE":"LARGE","DECAY_DATE":null,"ECCENTRICITY":"0.00010780","NORAD_CAT_ID":"53735","TLE_LINE2":"2 53735  53.2155 129.2009 0001078  92.9317 267.1798 15.08841848 40962","MEAN_ANOMALY":"267.1798","PERIAPSIS":"538.994","BSTAR":"0.00008283400000","OBJECT_TYPE":"PAYLOAD","MEAN_ELEMENT_THEORY":"SGP4","TLE_LINE1":"1 53735U 22107AM  23152.19422494  .00001031  00000-0  82834-4 0  9997","EPHEMERIS_TYPE":"0","REF_FRAME":"TEME","LAUNCH_DATE":"2022-09-05","INCLINATION":"53.2155","SITE":"AFETR","APOAPSIS":"540.485","COUNTRY_CODE":"US","CLASSIFICATION_TYPE":"U","OBJECT_NAME":"STARLINK-4618","ARG_OF_PERICENTER":"92.9317","PERIOD":"95.437","TIME_SYSTEM":"UTC","ELEMENT_SET_NO":"999","FILE":"3922339","MEAN_MOTION_DDOT":"0.0000000000000"},{"OBJECT_ID":"2022-107AN","CENTER_NAME":"EARTH","MEAN_MOTION":"15.08836271","EPOCH":"2023-06-01T05:28:46.314912","RA_OF_ASC_NODE":"119.4240","GP_ID":"232962813","REV_AT_EPOCH":"4173","SEMIMAJOR_AXIS":"6917.892","MEAN_MOTION_DOT":"0.00000761","DECAY_DATE":null,"RCS_SIZE":"LARGE","ECCENTRICITY":"0.00012730","NORAD_CAT_ID":"53736","TLE_LINE2":"2 53736  53.2166 119.4240 0001273  93.7339 266.3798 15.08836271 41734","MEAN_ANOMALY":"266.3798","PERIAPSIS":"538.876","BSTAR":"0.00006590900000","OBJECT_TYPE":"PAYLOAD","MEAN_ELEMENT_THEORY":"SGP4","EPHEMERIS_TYPE":"0","TLE_LINE1":"1 53736U 22107AN  23152.22831383  .00000761  00000-0  65909-4 0  9996","REF_FRAME":"TEME","LAUNCH_DATE":"2022-09-05","INCLINATION":"53.2166","SITE":"AFETR","APOAPSIS":"540.637","COUNTRY_CODE":"US","OBJECT_NAME":"STARLINK-4652","CLASSIFICATION_TYPE":"U","ARG_OF_PERICENTER":"93.7339","PERIOD":"95.438","TIME_SYSTEM":"UTC","FILE":"3922365","ELEMENT_SET_NO":"999","MEAN_MOTION_DDOT":"0.0000000000000"},{"APOAPSIS":"540.473","SITE":"AFETR","INCLINATION":"53.2154","LAUNCH_DATE":"2022-09-05","REF_FRAME":"TEME","TLE_LINE1":"1 53737U 22107AP  23152.19791098  .00000236  00000-0  32880-4 0  9990","EPHEMERIS_TYPE":"0","MEAN_ELEMENT_THEORY":"SGP4","OBJECT_TYPE":"PAYLOAD","MEAN_MOTION_DDOT":"0.0000000000000","ELEMENT_SET_NO":"999","FILE":"3922365","TIME_SYSTEM":"UTC","PERIOD":"95.438","ARG_OF_PERICENTER":"94.9960","COUNTRY_CODE":"US","CLASSIFICATION_TYPE":"U","OBJECT_NAME":"STARLINK-4646","MEAN_MOTION_DOT":"0.00000236","SEMIMAJOR_AXIS":"6917.883","REV_AT_EPOCH":"4174","GP_ID":"232962563","RA_OF_ASC_NODE":"129.2227","EPOCH":"2023-06-01T04:44:59.508672","MEAN_MOTION":"15.08839267","CENTER_NAME":"EARTH","OBJECT_ID":"2022-107AP","BSTAR":"0.00003288000000","PERIAPSIS":"539.022","MEAN_ANOMALY":"265.1152","TLE_LINE2":"2 53737  53.2154 129.2227 0001049  94.9960 265.1152 15.08839267 41740","NORAD_CAT_ID":"53737","ECCENTRICITY":"0.00010490","RCS_SIZE":"LARGE","DECAY_DATE":null}];
